[{"OBJECT_NAME":"OBJECT AS","OBJECT_ID":"2023-085AS","EPOCH":"2026-03-09T22:43:55.521696","MEAN_MOTION":15.33336233,"ECCENTRICITY":0.00083243,"INCLINATION":97.4812,"RA_OF_ASC_NODE":180.8852,"ARG_OF_PERICENTER":80.6036,"MEAN_ANOMALY":279.6147,"EPHEMERIS_TYPE":0,"CLASSIFICATION_TYPE":"U","NORAD_CAT_ID":57044,"ELEMENT_SET_NO":999,"REV_AT_EPOCH":15162,"BSTAR":0.00067677795,"MEAN_MOTION_DOT":0.00021782,"MEAN_MOTION_DDOT":0},{"OBJECT_NAME":"STARLINK-30526","OBJECT_ID":"2023-153R","EPOCH":"2026-03-09T22:00:01.999584","MEAN_MOTION":15.24461669,"ECCENTRICITY":0.00015561,"INCLINATION":43.0036,"RA_OF_ASC_NODE":40.4247,"ARG_OF_PERICENTER":291.2242,"MEAN_ANOMALY":42.0233,"EPHEMERIS_TYPE":0,"CLASSIFICATION_TYPE":"U","NORAD_CAT_ID":58006,"ELEMENT_SET_NO":999,"REV_AT_EPOCH":578,"BSTAR":0.062041238,"MEAN_MOTION_DOT":0.01696229,"MEAN_MOTION_DDOT":0}]
